{
"type": "FeatureCollection",
"name": "mpa_points",
"crs": { "type": "name", "properties": { "name": "urn:ogc:def:crs:OGC:1.3:CRS84" } },
"features": [
{ "type": "Feature", "properties": { "MPA_ID": 2003900, "MPA_Name": "Pulau Aur Marine Park", "State": "Johor", "Latitude": 2.4556, "Longitude": 104.523831, "Designation": "Marine Park", "Designation_Type": "National", "Status": "Designated", "Established": "1994-10-20", "Area_ha": 9745.0, "Area_km2": 97.45, "Marine_Area_ha": 0.0, "IUCN_Category": "II", "No_Take": "Unknown", "Has_Polygon": true, "Source": "Coral Triangle Atlas (see notes)", "Notes": "Boundary created by  buffering 2nm from the coastline, attributes obtained from the Marine Parks Authority (2009)." }, "geometry": { "type": "Point", "coordinates": [ 104.523831, 2.4556 ] } },
{ "type": "Feature", "properties": { "MPA_ID": 2003000, "MPA_Name": "Pulau Babi Besar Marine Park", "State": "Johor", "Latitude": 2.446666, "Longitude": 103.986472, "Designation": "Marine Park", "Designation_Type": "National", "Status": "Designated", "Established": "1994-10-20", "Area_ha": 8414.0, "Area_km2": 84.14, "Marine_Area_ha": 0.0, "IUCN_Category": "II", "No_Take": "Unknown", "Has_Polygon": true, "Source": "Coral Triangle Atlas (see notes)", "Notes": "Boundary created by  buffering 2nm from the coastline, attributes obtained from the Marine Parks Authority (2009)." }, "geometry": { "type": "Point", "coordinates": [ 103.986472, 2.446666 ] } },
{ "type": "Feature", "properties": { "MPA_ID": 2002800, "MPA_Name": "Pulau Babi Hujong Marine Park", "State": "Johor", "Latitude": 2.498046, "Longitude": 103.954415, "Designation": "Marine Park", "Designation_Type": "National", "Status": "Designated", "Established": "1994-10-20", "Area_ha": 5235.0, "Area_km2": 52.35, "Marine_Area_ha": 0.0, "IUCN_Category": "II", "No_Take": "Unknown", "Has_Polygon": false, "Source": "Coral Triangle Atlas (see notes)", "Notes": "Boundary created by  buffering 2nm from the coastline, attributes obtained from the Marine Parks Authority (2009)." }, "geometry": { "type": "Point", "coordinates": [ 103.954415, 2.498046 ] } },
{ "type": "Feature", "properties": { "MPA_ID": 2002900, "MPA_Name": "Pulau Babi Tengah Marine Park", "State": "Johor", "Latitude": 2.483528, "Longitude": 103.963313, "Designation": "Marine Park", "Designation_Type": "National", "Status": "Designated", "Established": "1994-10-20", "Area_ha": 5149.0, "Area_km2": 51.49, "Marine_Area_ha": 0.0, "IUCN_Category": "II", "No_Take": "Unknown", "Has_Polygon": false, "Source": "Coral Triangle Atlas (see notes)", "Notes": "Boundary created by  buffering 2nm from the coastline, attributes obtained from the Marine Parks Authority (2009)." }, "geometry": { "type": "Point", "coordinates": [ 103.963313, 2.483528 ] } },
{ "type": "Feature", "properties": { "MPA_ID": 2002600, "MPA_Name": "Pulau Gual Marine Park", "State": "Johor", "Latitude": 2.545041, "Longitude": 103.972148, "Designation": "Marine Park", "Designation_Type": "National", "Status": "Designated", "Established": "1994-10-20", "Area_ha": 4570.0, "Area_km2": 45.7, "Marine_Area_ha": 0.0, "IUCN_Category": "II", "No_Take": "Unknown", "Has_Polygon": false, "Source": "Coral Triangle Atlas (see notes)", "Notes": "Boundary created by  buffering 2nm from the coastline, attributes obtained from the Marine Parks Authority (2009)." }, "geometry": { "type": "Point", "coordinates": [ 103.972148, 2.545041 ] } },
{ "type": "Feature", "properties": { "MPA_ID": 2002400, "MPA_Name": "Pulau Harimau Marine Park", "State": "Johor", "Latitude": 2.569102, "Longitude": 103.946181, "Designation": "Marine Park", "Designation_Type": "National", "Status": "Designated", "Established": "1994-10-20", "Area_ha": 4900.0, "Area_km2": 49.0, "Marine_Area_ha": 0.0, "IUCN_Category": "II", "No_Take": "Unknown", "Has_Polygon": false, "Source": "Coral Triangle Atlas (see notes)", "Notes": "Boundary created by  buffering 2nm from the coastline, attributes obtained from the Marine Parks Authority (2009)." }, "geometry": { "type": "Point", "coordinates": [ 103.946181, 2.569102 ] } },
{ "type": "Feature", "properties": { "MPA_ID": 2002500, "MPA_Name": "Pulau Mensirip Marine Park", "State": "Johor", "Latitude": 2.559749, "Longitude": 103.962099, "Designation": "Marine Park", "Designation_Type": "National", "Status": "Designated", "Established": "1994-10-20", "Area_ha": 4660.0, "Area_km2": 46.6, "Marine_Area_ha": 0.0, "IUCN_Category": "II", "No_Take": "Unknown", "Has_Polygon": false, "Source": "Coral Triangle Atlas (see notes)", "Notes": "Boundary created by  buffering 2nm from the coastline, attributes obtained from the Marine Parks Authority (2009)." }, "geometry": { "type": "Point", "coordinates": [ 103.962099, 2.559749 ] } },
{ "type": "Feature", "properties": { "MPA_ID": 2004100, "MPA_Name": "Pulau Mentigi Marine Park", "State": "Johor", "Latitude": 2.270545, "Longitude": 104.127933, "Designation": "Marine Park", "Designation_Type": "National", "Status": "Designated", "Established": "1994-10-20", "Area_ha": 4399.0, "Area_km2": 43.99, "Marine_Area_ha": 0.0, "IUCN_Category": "II", "No_Take": "Unknown", "Has_Polygon": false, "Source": "Coral Triangle Atlas (see notes)", "Notes": "Boundary created by  buffering 2nm from the coastline, attributes obtained from the Marine Parks Authority (2009)." }, "geometry": { "type": "Point", "coordinates": [ 104.127933, 2.270545 ] } },
{ "type": "Feature", "properties": { "MPA_ID": 2003800, "MPA_Name": "Pulau Pemanggil Marine Park", "State": "Johor", "Latitude": 2.588322, "Longitude": 104.330793, "Designation": "Marine Park", "Designation_Type": "National", "Status": "Designated", "Established": "1994-10-20", "Area_ha": 8790.0, "Area_km2": 87.9, "Marine_Area_ha": 0.0, "IUCN_Category": "II", "No_Take": "Unknown", "Has_Polygon": true, "Source": "Coral Triangle Atlas (see notes)", "Notes": "Boundary created by  buffering 2nm from the coastline, attributes obtained from the Marine Parks Authority (2009)." }, "geometry": { "type": "Point", "coordinates": [ 104.330793, 2.588322 ] } },
{ "type": "Feature", "properties": { "MPA_ID": 2002700, "MPA_Name": "Pulau Rawa Marine Park", "State": "Johor", "Latitude": 2.52923, "Longitude": 103.979065, "Designation": "Marine Park", "Designation_Type": "National", "Status": "Designated", "Established": "1994-10-20", "Area_ha": 5080.0, "Area_km2": 50.8, "Marine_Area_ha": 0.0, "IUCN_Category": "II", "No_Take": "Unknown", "Has_Polygon": false, "Source": "Coral Triangle Atlas (see notes)", "Notes": "Boundary created by  buffering 2nm from the coastline, attributes obtained from the Marine Parks Authority (2009)." }, "geometry": { "type": "Point", "coordinates": [ 103.979065, 2.52923 ] } },
{ "type": "Feature", "properties": { "MPA_ID": 2004700, "MPA_Name": "Pulau Sibu Hujong Marine Park", "State": "Johor", "Latitude": 2.185864, "Longitude": 104.11314, "Designation": "Marine Park", "Designation_Type": "National", "Status": "Designated", "Established": "1994-10-20", "Area_ha": 1183.0, "Area_km2": 11.83, "Marine_Area_ha": 0.0, "IUCN_Category": "II", "No_Take": "Unknown", "Has_Polygon": false, "Source": "Coral Triangle Atlas (see notes)", "Notes": "Boundary created by  buffering 2nm from the coastline, attributes obtained from the Marine Parks Authority (2009)." }, "geometry": { "type": "Point", "coordinates": [ 104.11314, 2.185864 ] } },
{ "type": "Feature", "properties": { "MPA_ID": 2004800, "MPA_Name": "Pulau Sibu Marine Park", "State": "Johor", "Latitude": 2.220224, "Longitude": 104.072603, "Designation": "Marine Park", "Designation_Type": "National", "Status": "Designated", "Established": "1994-10-20", "Area_ha": 4260.0, "Area_km2": 42.6, "Marine_Area_ha": 0.0, "IUCN_Category": "II", "No_Take": "Unknown", "Has_Polygon": true, "Source": "Coral Triangle Atlas (see notes)", "Notes": "Boundary created by  buffering 2nm from the coastline, attributes obtained from the Marine Parks Authority (2009)." }, "geometry": { "type": "Point", "coordinates": [ 104.072603, 2.220224 ] } },
{ "type": "Feature", "properties": { "MPA_ID": 2004000, "MPA_Name": "Pulau Tinggi Marine Park", "State": "Johor", "Latitude": 2.306973, "Longitude": 104.119368, "Designation": "Marine Park", "Designation_Type": "National", "Status": "Designated", "Established": "1994-10-20", "Area_ha": 10180.0, "Area_km2": 101.8, "Marine_Area_ha": 0.0, "IUCN_Category": "II", "No_Take": "Unknown", "Has_Polygon": true, "Source": "Coral Triangle Atlas (see notes)", "Notes": "Boundary created by  buffering 2nm from the coastline, attributes obtained from the Marine Parks Authority (2009)." }, "geometry": { "type": "Point", "coordinates": [ 104.119368, 2.306973 ] } },
{ "type": "Feature", "properties": { "MPA_ID": 2001100, "MPA_Name": "Pulau Kacha Marine Park", "State": "Kedah", "Latitude": 6.071461, "Longitude": 100.050358, "Designation": "Marine Park", "Designation_Type": "National", "Status": "Designated", "Established": "1994-10-20", "Area_ha": 4290.0, "Area_km2": 42.9, "Marine_Area_ha": 0.0, "IUCN_Category": "II", "No_Take": "Unknown", "Has_Polygon": false, "Source": "Coral Triangle Atlas (see notes)", "Notes": "Boundary created by  buffering 2nm from the coastline, attributes obtained from the Marine Parks Authority (2009)." }, "geometry": { "type": "Point", "coordinates": [ 100.050358, 6.071461 ] } },
{ "type": "Feature", "properties": { "MPA_ID": 2001000, "MPA_Name": "Pulau Lembu Marine Park", "State": "Kedah", "Latitude": 6.073493, "Longitude": 100.057909, "Designation": "Marine Park", "Designation_Type": "National", "Status": "Designated", "Established": "1994-10-20", "Area_ha": 4613.0, "Area_km2": 46.13, "Marine_Area_ha": 0.0, "IUCN_Category": "II", "No_Take": "Unknown", "Has_Polygon": false, "Source": "Coral Triangle Atlas (see notes)", "Notes": "Boundary created by  buffering 2nm from the coastline, attributes obtained from the Marine Parks Authority (2009)." }, "geometry": { "type": "Point", "coordinates": [ 100.057909, 6.073493 ] } },
{ "type": "Feature", "properties": { "MPA_ID": 2001200, "MPA_Name": "Pulau Payar Marine Park", "State": "Kedah", "Latitude": 6.060827, "Longitude": 100.038381, "Designation": "Marine Park", "Designation_Type": "National", "Status": "Designated", "Established": "1994-10-20", "Area_ha": 5491.0, "Area_km2": 54.91, "Marine_Area_ha": 0.0, "IUCN_Category": "II", "No_Take": "Unknown", "Has_Polygon": true, "Source": "Coral Triangle Atlas (see notes)", "Notes": "Boundary created by  buffering 2nm from the coastline, attributes obtained from the Marine Parks Authority (2009)." }, "geometry": { "type": "Point", "coordinates": [ 100.038381, 6.060827 ] } },
{ "type": "Feature", "properties": { "MPA_ID": 2000900, "MPA_Name": "Pulau Segantang Marine Park", "State": "Kedah", "Latitude": 6.042063, "Longitude": 99.929524, "Designation": "Marine Park", "Designation_Type": "National", "Status": "Designated", "Established": "1994-10-20", "Area_ha": 4419.0, "Area_km2": 44.19, "Marine_Area_ha": 0.0, "IUCN_Category": "II", "No_Take": "Unknown", "Has_Polygon": true, "Source": "Coral Triangle Atlas (see notes)", "Notes": "Boundary created by  buffering 2nm from the coastline, attributes obtained from the Marine Parks Authority (2009)." }, "geometry": { "type": "Point", "coordinates": [ 99.929524, 6.042063 ] } },
{ "type": "Feature", "properties": { "MPA_ID": 2003100, "MPA_Name": "Pulau Cebeh Marine Park", "State": "Pahang", "Latitude": 2.939306, "Longitude": 104.099856, "Designation": "Marine Park", "Designation_Type": "National", "Status": "Designated", "Established": "1994-10-20", "Area_ha": 4492.0, "Area_km2": 44.92, "Marine_Area_ha": 0.0, "IUCN_Category": "II", "No_Take": "Unknown", "Has_Polygon": false, "Source": "Coral Triangle Atlas (see notes)", "Notes": "Boundary created by  buffering 2nm from the coastline, attributes obtained from the Marine Parks Authority (2009)." }, "geometry": { "type": "Point", "coordinates": [ 104.099856, 2.939306 ] } },
{ "type": "Feature", "properties": { "MPA_ID": 2003600, "MPA_Name": "Pulau Jahat Marine Park", "State": "Pahang", "Latitude": 2.67051, "Longitude": 104.164817, "Designation": "Marine Park", "Designation_Type": "National", "Status": "Designated", "Established": "1994-10-20", "Area_ha": 4520.0, "Area_km2": 45.2, "Marine_Area_ha": 0.0, "IUCN_Category": "II", "No_Take": "Unknown", "Has_Polygon": false, "Source": "Coral Triangle Atlas (see notes)", "Notes": "Boundary created by  buffering 2nm from the coastline, attributes obtained from the Marine Parks Authority (2009)." }, "geometry": { "type": "Point", "coordinates": [ 104.164817, 2.67051 ] } },
{ "type": "Feature", "properties": { "MPA_ID": 2003500, "MPA_Name": "Pulau Labas Marine Park", "State": "Pahang", "Latitude": 2.893862, "Longitude": 104.069283, "Designation": "Marine Park", "Designation_Type": "National", "Status": "Designated", "Established": "1994-10-20", "Area_ha": 4457.0, "Area_km2": 44.57, "Marine_Area_ha": 0.0, "IUCN_Category": "II", "No_Take": "Unknown", "Has_Polygon": false, "Source": "Coral Triangle Atlas (see notes)", "Notes": "Boundary created by  buffering 2nm from the coastline, attributes obtained from the Marine Parks Authority (2009)." }, "geometry": { "type": "Point", "coordinates": [ 104.069283, 2.893862 ] } },
{ "type": "Feature", "properties": { "MPA_ID": 2002200, "MPA_Name": "Pulau Sembilang Marine Park", "State": "Pahang", "Latitude": 2.700084, "Longitude": 103.887935, "Designation": "Marine Park", "Designation_Type": "National", "Status": "Designated", "Established": "1994-10-20", "Area_ha": 6060.0, "Area_km2": 60.6, "Marine_Area_ha": 0.0, "IUCN_Category": "II", "No_Take": "Unknown", "Has_Polygon": false, "Source": "Coral Triangle Atlas (see notes)", "Notes": "Boundary created by  buffering 2nm from the coastline, attributes obtained from the Marine Parks Authority (2009)." }, "geometry": { "type": "Point", "coordinates": [ 103.887935, 2.700084 ] } },
{ "type": "Feature", "properties": { "MPA_ID": 2003300, "MPA_Name": "Pulau Sepoi Marine Park", "State": "Pahang", "Latitude": 2.903644, "Longitude": 104.052758, "Designation": "Marine Park", "Designation_Type": "National", "Status": "Designated", "Established": "1994-10-20", "Area_ha": 4720.0, "Area_km2": 47.2, "Marine_Area_ha": 0.0, "IUCN_Category": "II", "No_Take": "Unknown", "Has_Polygon": false, "Source": "Coral Triangle Atlas (see notes)", "Notes": "Boundary created by  buffering 2nm from the coastline, attributes obtained from the Marine Parks Authority (2009)." }, "geometry": { "type": "Point", "coordinates": [ 104.052758, 2.903644 ] } },
{ "type": "Feature", "properties": { "MPA_ID": 2002300, "MPA_Name": "Pulau Seri Buat", "State": "Pahang", "Latitude": 2.695392, "Longitude": 103.915016, "Designation": "Marine Park", "Designation_Type": "National", "Status": "Designated", "Established": "1994-10-20", "Area_ha": 7720.0, "Area_km2": 77.2, "Marine_Area_ha": 0.0, "IUCN_Category": "II", "No_Take": "Unknown", "Has_Polygon": true, "Source": "Coral Triangle Atlas (see notes)", "Notes": "Boundary created by  buffering 2nm from the coastline, attributes obtained from the Marine Parks Authority (2009)." }, "geometry": { "type": "Point", "coordinates": [ 103.915016, 2.695392 ] } },
{ "type": "Feature", "properties": { "MPA_ID": 2003400, "MPA_Name": "Pulau Tioman", "State": "Pahang", "Latitude": 2.80532, "Longitude": 104.174596, "Designation": "Marine Park", "Designation_Type": "National", "Status": "Designated", "Established": "1994-10-20", "Area_ha": 25115.0, "Area_km2": 251.15, "Marine_Area_ha": 0.0, "IUCN_Category": "II", "No_Take": "Unknown", "Has_Polygon": true, "Source": "Coral Triangle Atlas (see notes)", "Notes": "Boundary created by  buffering 2nm from the coastline, attributes obtained from the Marine Parks Authority (2009)." }, "geometry": { "type": "Point", "coordinates": [ 104.174596, 2.80532 ] } },
{ "type": "Feature", "properties": { "MPA_ID": 2003700, "MPA_Name": "Pulau Tokong Bahara Marine Park", "State": "Pahang", "Latitude": 2.669152, "Longitude": 104.068333, "Designation": "Marine Park", "Designation_Type": "National", "Status": "Designated", "Established": "1994-10-20", "Area_ha": 4513.0, "Area_km2": 45.13, "Marine_Area_ha": 0.0, "IUCN_Category": "II", "No_Take": "Unknown", "Has_Polygon": true, "Source": "Coral Triangle Atlas (see notes)", "Notes": "Boundary created by  buffering 2nm from the coastline, attributes obtained from the Marine Parks Authority (2009)." }, "geometry": { "type": "Point", "coordinates": [ 104.068333, 2.669152 ] } },
{ "type": "Feature", "properties": { "MPA_ID": 2003200, "MPA_Name": "Pulau Tulai Marine Park", "State": "Pahang", "Latitude": 2.918288, "Longitude": 104.107276, "Designation": "Marine Park", "Designation_Type": "National", "Status": "Designated", "Established": "1994-10-20", "Area_ha": 6306.0, "Area_km2": 63.06, "Marine_Area_ha": 0.0, "IUCN_Category": "II", "No_Take": "Unknown", "Has_Polygon": false, "Source": "Coral Triangle Atlas (see notes)", "Notes": "Boundary created by  buffering 2nm from the coastline, attributes obtained from the Marine Parks Authority (2009)." }, "geometry": { "type": "Point", "coordinates": [ 104.107276, 2.918288 ] } },
{ "type": "Feature", "properties": { "MPA_ID": 2000600, "MPA_Name": "Pulau Tiga Park Marine Park", "State": "Sabah", "Latitude": 5.780577, "Longitude": 115.663242, "Designation": "Marine Park", "Designation_Type": "National", "Status": "Designated", "Established": "1978-01-01", "Area_ha": 15800.0, "Area_km2": 158.0, "Marine_Area_ha": 0.0, "IUCN_Category": "II", "No_Take": "Unknown", "Has_Polygon": true, "Source": "Sabah Parks", "Notes": null }, "geometry": { "type": "Point", "coordinates": [ 115.663242, 5.780577 ] } },
{ "type": "Feature", "properties": { "MPA_ID": 2000500, "MPA_Name": "Sipadan Island (Proposed Boundary) Marine Park", "State": "Sabah", "Latitude": 4.110771, "Longitude": 118.629316, "Designation": "Marine Park", "Designation_Type": "National", "Status": "Designated", "Established": "2004-01-01", "Area_ha": 0.0, "Area_km2": 0.0, "Marine_Area_ha": 0.0, "IUCN_Category": "Unknown", "No_Take": "Unknown", "Has_Polygon": true, "Source": "Sabah Parks", "Notes": null }, "geometry": { "type": "Point", "coordinates": [ 118.629316, 4.110771 ] } },
{ "type": "Feature", "properties": { "MPA_ID": 2000200, "MPA_Name": "Sugud Islands Marine Conservation Area", "State": "Sabah", "Latitude": 6.555958, "Longitude": 117.825818, "Designation": "Marine Conservation Area", "Designation_Type": "National", "Status": "Designated", "Established": "2001-12-03", "Area_ha": 46317.0, "Area_km2": 463.17, "Marine_Area_ha": 46317.0, "IUCN_Category": "II", "No_Take": "All", "Has_Polygon": true, "Source": "Reefbase", "Notes": null }, "geometry": { "type": "Point", "coordinates": [ 117.825818, 6.555958 ] } },
{ "type": "Feature", "properties": { "MPA_ID": 2005000, "MPA_Name": "Tun Mustapha Park", "State": "Sabah", "Latitude": 7.167392, "Longitude": 117.007421, "Designation": "Marine Park", "Designation_Type": "National", "Status": "Designated", "Established": "2016-05-19", "Area_ha": 898762.76, "Area_km2": 8987.6276, "Marine_Area_ha": 898762.76, "IUCN_Category": "VI", "No_Take": "Part", "Has_Polygon": true, "Source": "Sabah Parks", "Notes": null }, "geometry": { "type": "Point", "coordinates": [ 117.007421, 7.167392 ] } },
{ "type": "Feature", "properties": { "MPA_ID": 2000400, "MPA_Name": "Tun Sakaran Marine Park", "State": "Sabah", "Latitude": 4.619579, "Longitude": 118.724085, "Designation": "Marine Park", "Designation_Type": "National", "Status": "Designated", "Established": "2004-07-01", "Area_ha": 35000.0, "Area_km2": 350.0, "Marine_Area_ha": 0.0, "IUCN_Category": "Unknown", "No_Take": "Unknown", "Has_Polygon": true, "Source": "Sabah Parks", "Notes": null }, "geometry": { "type": "Point", "coordinates": [ 118.724085, 4.619579 ] } },
{ "type": "Feature", "properties": { "MPA_ID": 2000700, "MPA_Name": "Tunku Abdul Rahman State Park", "State": "Sabah", "Latitude": 5.998106, "Longitude": 116.019407, "Designation": "State Park", "Designation_Type": "National", "Status": "Designated", "Established": "1974-01-01", "Area_ha": 5000.0, "Area_km2": 50.0, "Marine_Area_ha": 0.0, "IUCN_Category": "II", "No_Take": "Unknown", "Has_Polygon": true, "Source": "Sabah Parks", "Notes": null }, "geometry": { "type": "Point", "coordinates": [ 116.019407, 5.998106 ] } },
{ "type": "Feature", "properties": { "MPA_ID": 2000300, "MPA_Name": "Turtle Islands State Park", "State": "Sabah", "Latitude": 6.163491, "Longitude": 118.074806, "Designation": "State Park", "Designation_Type": "National", "Status": "Designated", "Established": "1977-01-01", "Area_ha": 1740.0, "Area_km2": 17.4, "Marine_Area_ha": 0.0, "IUCN_Category": "II", "No_Take": "Unknown", "Has_Polygon": true, "Source": "Sabah Parks", "Notes": null }, "geometry": { "type": "Point", "coordinates": [ 118.074806, 6.163491 ] } },
{ "type": "Feature", "properties": { "MPA_ID": 2005100, "MPA_Name": "Miri-Sibuti Coral Reefs National Park", "State": "Sarawak", "Latitude": 4.338766, "Longitude": 113.813773, "Designation": "National Park", "Designation_Type": "National", "Status": "Designated", "Established": "2007-01-01", "Area_ha": 186930.0, "Area_km2": 1869.3, "Marine_Area_ha": 0.0, "IUCN_Category": "Unknown", "No_Take": "Unknown", "Has_Polygon": false, "Source": "Coral Triangle Atlas (see notes)", "Notes": "There are no boundaries up to dec 2012. The iattribute information was obtained from different sources from the web." }, "geometry": { "type": "Point", "coordinates": [ 113.813773, 4.338766 ] } },
{ "type": "Feature", "properties": { "MPA_ID": 2000100, "MPA_Name": "Talang-Satang National Park", "State": "Sarawak", "Latitude": 1.911002, "Longitude": 109.781697, "Designation": "National Park", "Designation_Type": "National", "Status": "Designated", "Established": "1999-11-04", "Area_ha": 19414.0, "Area_km2": 194.14, "Marine_Area_ha": 0.0, "IUCN_Category": "II", "No_Take": "Unknown", "Has_Polygon": true, "Source": "Coral Triangle Atlas (see notes)", "Notes": "Boundary created by  buffering 2nm from the coastline, attributes obtained from Sarawak Forestry Corporation's website (accessed 2012)." }, "geometry": { "type": "Point", "coordinates": [ 109.781697, 1.911002 ] } },
{ "type": "Feature", "properties": { "MPA_ID": 2001900, "MPA_Name": "Pulau Ekor Tebu Marine Park", "State": "Terengganu", "Latitude": 5.737872, "Longitude": 103.03546, "Designation": "Marine Park", "Designation_Type": "National", "Status": "Designated", "Established": "1994-10-20", "Area_ha": 4060.0, "Area_km2": 40.6, "Marine_Area_ha": 0.0, "IUCN_Category": "II", "No_Take": "Unknown", "Has_Polygon": false, "Source": "Coral Triangle Atlas (see notes)", "Notes": "Boundary created by  buffering 2nm from the coastline, attributes obtained from the Marine Parks Authority (2009)." }, "geometry": { "type": "Point", "coordinates": [ 103.03546, 5.737872 ] } },
{ "type": "Feature", "properties": { "MPA_ID": 2000800, "MPA_Name": "Pulau Kapas Marine Park", "State": "Terengganu", "Latitude": 5.22583, "Longitude": 103.267845, "Designation": "Marine Park", "Designation_Type": "National", "Status": "Designated", "Established": "1994-10-20", "Area_ha": 2133.0, "Area_km2": 21.33, "Marine_Area_ha": 0.0, "IUCN_Category": "II", "No_Take": "Unknown", "Has_Polygon": true, "Source": "Coral Triangle Atlas (see notes)", "Notes": "Boundary created by  buffering 2nm from the coastline, attributes obtained from the Marine Parks Authority (2009)." }, "geometry": { "type": "Point", "coordinates": [ 103.267845, 5.22583 ] } },
{ "type": "Feature", "properties": { "MPA_ID": 2001600, "MPA_Name": "Pulau Lang Tengah Marine Park", "State": "Terengganu", "Latitude": 5.797564, "Longitude": 102.899505, "Designation": "Marine Park", "Designation_Type": "National", "Status": "Designated", "Established": "1994-10-20", "Area_ha": 6155.0, "Area_km2": 61.55, "Marine_Area_ha": 0.0, "IUCN_Category": "II", "No_Take": "Unknown", "Has_Polygon": true, "Source": "Coral Triangle Atlas (see notes)", "Notes": "Boundary created by  buffering 2nm from the coastline, attributes obtained from the Marine Parks Authority (2009)." }, "geometry": { "type": "Point", "coordinates": [ 102.899505, 5.797564 ] } },
{ "type": "Feature", "properties": { "MPA_ID": 2001700, "MPA_Name": "Pulau Lima Marine Park", "State": "Terengganu", "Latitude": 5.773322, "Longitude": 103.067246, "Designation": "Marine Park", "Designation_Type": "National", "Status": "Designated", "Established": "1994-10-20", "Area_ha": 4390.0, "Area_km2": 43.9, "Marine_Area_ha": 0.0, "IUCN_Category": "II", "No_Take": "Unknown", "Has_Polygon": false, "Source": "Coral Triangle Atlas (see notes)", "Notes": "Boundary created by  buffering 2nm from the coastline, attributes obtained from the Marine Parks Authority (2009)." }, "geometry": { "type": "Point", "coordinates": [ 103.067246, 5.773322 ] } },
{ "type": "Feature", "properties": { "MPA_ID": 2004900, "MPA_Name": "Pulau Nyireh Marine Park", "State": "Terengganu", "Latitude": 4.871509, "Longitude": 103.67284, "Designation": "Marine Park", "Designation_Type": "National", "Status": "Designated", "Established": "1998-03-27", "Area_ha": 1440.0, "Area_km2": 14.4, "Marine_Area_ha": 0.0, "IUCN_Category": "II", "No_Take": "Unknown", "Has_Polygon": false, "Source": "Coral Triangle Atlas (see notes)", "Notes": "Boundary created by  buffering 2nm from the coastline, attributes obtained from the Marine Parks Authority (2009)." }, "geometry": { "type": "Point", "coordinates": [ 103.67284, 4.871509 ] } },
{ "type": "Feature", "properties": { "MPA_ID": 2001400, "MPA_Name": "Pulau Perhentian Besar Marine Park", "State": "Terengganu", "Latitude": 5.904778, "Longitude": 102.760959, "Designation": "Marine Park", "Designation_Type": "National", "Status": "Designated", "Established": "1994-10-20", "Area_ha": 9121.0, "Area_km2": 91.21, "Marine_Area_ha": 0.0, "IUCN_Category": "II", "No_Take": "Unknown", "Has_Polygon": true, "Source": "Coral Triangle Atlas (see notes)", "Notes": "Boundary created by  buffering 2nm from the coastline, attributes obtained from the Marine Parks Authority (2009)." }, "geometry": { "type": "Point", "coordinates": [ 102.760959, 5.904778 ] } },
{ "type": "Feature", "properties": { "MPA_ID": 2001300, "MPA_Name": "Pulau Perhentian Kecil Marine Park", "State": "Terengganu", "Latitude": 5.923141, "Longitude": 102.721411, "Designation": "Marine Park", "Designation_Type": "National", "Status": "Designated", "Established": "1994-10-20", "Area_ha": 8107.0, "Area_km2": 81.07, "Marine_Area_ha": 0.0, "IUCN_Category": "II", "No_Take": "Unknown", "Has_Polygon": false, "Source": "Coral Triangle Atlas (see notes)", "Notes": "Boundary created by  buffering 2nm from the coastline, attributes obtained from the Marine Parks Authority (2009)." }, "geometry": { "type": "Point", "coordinates": [ 102.721411, 5.923141 ] } },
{ "type": "Feature", "properties": { "MPA_ID": 2001800, "MPA_Name": "Pulau Pinang Marine Park", "State": "Terengganu", "Latitude": 5.739853, "Longitude": 103.003215, "Designation": "Marine Park", "Designation_Type": "National", "Status": "Designated", "Established": "1994-10-20", "Area_ha": 4890.0, "Area_km2": 48.9, "Marine_Area_ha": 0.0, "IUCN_Category": "II", "No_Take": "Unknown", "Has_Polygon": false, "Source": "Coral Triangle Atlas (see notes)", "Notes": "Boundary created by  buffering 2nm from the coastline, attributes obtained from the Marine Parks Authority (2009)." }, "geometry": { "type": "Point", "coordinates": [ 103.003215, 5.739853 ] } },
{ "type": "Feature", "properties": { "MPA_ID": 2001500, "MPA_Name": "Pulau Redang Marine Park", "State": "Terengganu", "Latitude": 5.787809, "Longitude": 103.016363, "Designation": "Marine Park", "Designation_Type": "National", "Status": "Designated", "Established": "1994-10-20", "Area_ha": 12750.0, "Area_km2": 127.5, "Marine_Area_ha": 0.0, "IUCN_Category": "II", "No_Take": "Unknown", "Has_Polygon": true, "Source": "Coral Triangle Atlas (see notes)", "Notes": "Boundary created by  buffering 2nm from the coastline, attributes obtained from the Marine Parks Authority (2009)." }, "geometry": { "type": "Point", "coordinates": [ 103.016363, 5.787809 ] } },
{ "type": "Feature", "properties": { "MPA_ID": 2004600, "MPA_Name": "Pulau Susu Dara Marine Park", "State": "Terengganu", "Latitude": 5.965616, "Longitude": 102.665656, "Designation": "Marine Park", "Designation_Type": "National", "Status": "Designated", "Established": "1994-10-20", "Area_ha": 1428.0, "Area_km2": 14.28, "Marine_Area_ha": 0.0, "IUCN_Category": "II", "No_Take": "Unknown", "Has_Polygon": false, "Source": "Coral Triangle Atlas (see notes)", "Notes": "Boundary created by  buffering 2nm from the coastline, attributes obtained from the Marine Parks Authority (2009)." }, "geometry": { "type": "Point", "coordinates": [ 102.665656, 5.965616 ] } },
{ "type": "Feature", "properties": { "MPA_ID": 2004500, "MPA_Name": "Pulau Tenggol Marine Park", "State": "Terengganu", "Latitude": 4.832864, "Longitude": 103.689138, "Designation": "Marine Park", "Designation_Type": "National", "Status": "Designated", "Established": "1998-03-27", "Area_ha": 2400.0, "Area_km2": 24.0, "Marine_Area_ha": 0.0, "IUCN_Category": "II", "No_Take": "Unknown", "Has_Polygon": true, "Source": "Coral Triangle Atlas (see notes)", "Notes": "Boundary created by  buffering 2nm from the coastline, attributes obtained from the Marine Parks Authority (2009)." }, "geometry": { "type": "Point", "coordinates": [ 103.689138, 4.832864 ] } },
{ "type": "Feature", "properties": { "MPA_ID": 2002000, "MPA_Name": "Pulau Yu Besar Marine Park", "State": "Terengganu", "Latitude": 5.644228, "Longitude": 103.15568, "Designation": "Marine Park", "Designation_Type": "National", "Status": "Designated", "Established": "2008-02-05", "Area_ha": 0.0, "Area_km2": 0.0, "Marine_Area_ha": 0.0, "IUCN_Category": "II", "No_Take": "Unknown", "Has_Polygon": true, "Source": "Coral Triangle Atlas (see notes)", "Notes": "Boundary created by  buffering 2nm from the coastline, attributes obtained from the Marine Parks Authority (2009)." }, "geometry": { "type": "Point", "coordinates": [ 103.15568, 5.644228 ] } },
{ "type": "Feature", "properties": { "MPA_ID": 2002100, "MPA_Name": "Pulau Yu Kecil Marine Park", "State": "Terengganu", "Latitude": 5.62569, "Longitude": 103.163374, "Designation": "Marine Park", "Designation_Type": "National", "Status": "Designated", "Established": "2008-02-05", "Area_ha": 0.0, "Area_km2": 0.0, "Marine_Area_ha": 0.0, "IUCN_Category": "II", "No_Take": "Unknown", "Has_Polygon": false, "Source": "Coral Triangle Atlas (see notes)", "Notes": "Boundary created by  buffering 2nm from the coastline, attributes obtained from the Marine Parks Authority (2009)." }, "geometry": { "type": "Point", "coordinates": [ 103.163374, 5.62569 ] } },
{ "type": "Feature", "properties": { "MPA_ID": 2004400, "MPA_Name": "Pulau Kuraman Marine Park", "State": "Labuan", "Latitude": 5.22913, "Longitude": 115.128313, "Designation": "Marine Park", "Designation_Type": "National", "Status": "Designated", "Established": "2000-08-18", "Area_ha": 6695.0, "Area_km2": 66.95, "Marine_Area_ha": 0.0, "IUCN_Category": "II", "No_Take": "Unknown", "Has_Polygon": true, "Source": "Coral Triangle Atlas (see notes)", "Notes": "Boundary created by  buffering 1nm from the coastline, attributes obtained from the Marine Parks Authority (2009)." }, "geometry": { "type": "Point", "coordinates": [ 115.128313, 5.22913 ] } },
{ "type": "Feature", "properties": { "MPA_ID": 2004200, "MPA_Name": "Pulau Rusukan Besar Marine Park", "State": "Labuan", "Latitude": 5.190847, "Longitude": 115.137995, "Designation": "Marine Park", "Designation_Type": "National", "Status": "Designated", "Established": "2000-08-18", "Area_ha": 4470.0, "Area_km2": 44.7, "Marine_Area_ha": 0.0, "IUCN_Category": "II", "No_Take": "Unknown", "Has_Polygon": false, "Source": "Coral Triangle Atlas (see notes)", "Notes": "Boundary created by  buffering 1nm from the coastline, attributes obtained from the Marine Parks Authority (2009)." }, "geometry": { "type": "Point", "coordinates": [ 115.137995, 5.190847 ] } },
{ "type": "Feature", "properties": { "MPA_ID": 2004300, "MPA_Name": "Pulau Rusukan Kecil Marine Park", "State": "Labuan", "Latitude": 5.205176, "Longitude": 115.14427, "Designation": "Marine Park", "Designation_Type": "National", "Status": "Designated", "Established": "2000-08-18", "Area_ha": 4650.0, "Area_km2": 46.5, "Marine_Area_ha": 0.0, "IUCN_Category": "II", "No_Take": "Unknown", "Has_Polygon": false, "Source": "Coral Triangle Atlas (see notes)", "Notes": "Boundary created by  buffering 1nm from the coastline, attributes obtained from the Marine Parks Authority (2009)." }, "geometry": { "type": "Point", "coordinates": [ 115.14427, 5.205176 ] } }
]
}
